ONEWEB-0068             
1 45446U 20020Y   26177.08006984  .00000411  00000+0  11228-2 0  9996
2 45446  87.8889  19.2939 0001682  82.7187 277.4132 13.11418062303768
ONEWEB-0046             
1 45447U 20020Z   26177.07172270  .00000101  00000+0  25020-3 0  9990
2 45447  87.8883  19.3009 0001898  78.8613 281.2729 13.11418158303773
ONEWEB-0063             
1 45448U 20020AA  26177.25327828  .00000420  00000+0  11487-2 0  9997
2 45448  87.8890  19.2639 0002091  83.4958 276.6408 13.11414378303884
ONEWEB-0019             
1 45449U 20020AB  26177.06310395 -.00000279  00000+0 -82249-3 0  9997
2 45449  87.8886  19.2880 0001817  92.0714 268.0622 13.11418748303708
ONEWEB-0094             
1 45450U 20020AC  26177.23934731 -.00000025  00000+0 -96440-4 0  9992
2 45450  87.9141   4.0488 0001658  91.7217 268.4105 13.17647794307501
ONEWEB-0087             
1 45451U 20020AD  26177.26316930  .00000018  00000+0  16199-4 0  9994
2 45451  87.8898  19.2368 0001560  81.5990 278.5315 13.11414767303778
ONEWEB-0082             
1 45452U 20020AE  26177.25978478  .00000094  00000+0  22993-3 0  9997
2 45452  87.8890  19.2534 0001649  72.4129 287.7179 13.11414165303869
ONEWEB-0050             
1 45453U 20020AF  26176.66948242  .00002025  00000+0  20586-3 0  9990
2 45453  88.9292 232.0589 0001648   5.0787 355.0458 14.90410431341641
ONEWEB-0034             
1 45454U 20020AG  26177.06847203 -.00000011  00000+0 -66587-4 0  9998
2 45454  87.8892  19.3012 0001823  86.4440 273.6897 13.11418194303755
ONEWEB-0060             
1 45455U 20020AH  26177.25229473  .00000424  00000+0  11604-2 0  9997
2 45455  87.8883  19.2616 0000903  69.1032 291.0193 13.11414496303730
ONEWEB-0086             
1 45456U 20020AJ  26177.07837425  .00000449  00000+0  12299-2 0  9998
2 45456  87.8891  19.2923 0001139 102.2493 257.8763 13.11418511303772
ONEWEB-0088             
1 45457U 20020AK  26176.98015002 -.00000418  00000+0 -12158-2 0  9999
2 45457  87.8900  19.2854 0002110  77.6847 282.4517 13.11416546303693
ONEWEB-0102             
1 47258U 20100A   26177.20618434 -.00000309  00000+0 -89492-3 0  9998
2 47258  87.8942 348.8809 0001738 101.7914 258.3409 13.12442572265913
ONEWEB-0109             
1 47259U 20100B   26177.21465854 -.00000021  00000+0 -94852-4 0  9994
2 47259  87.8953 348.8633 0001913  96.7475 263.3872 13.12443273265741
ONEWEB-0110             
1 47260U 20100C   26177.24177542 -.00000585  00000+0 -16625-2 0  9998
2 47260  87.8953 348.8421 0001548  96.2677 263.8628 13.12432535265913
ONEWEB-0111             
1 47261U 20100D   26176.96730645 -.00000439  00000+0 -12560-2 0  9998
2 47261  87.8953 348.9155 0001750  91.1067 269.0262 13.12441994265710
ONEWEB-0114             
1 47262U 20100E   26177.22652301  .00000310  00000+0  82558-3 0  9992
2 47262  87.8953 348.8616 0001974  97.0945 263.0408 13.12446772265704
ONEWEB-0117             
1 47263U 20100F   26177.21803940  .00000091  00000+0  21813-3 0  9992
2 47263  87.8951 348.8538 0001799  93.4452 266.6883 13.12445324265713
ONEWEB-0118             
1 47264U 20100G   26177.17568673  .00000103  00000+0  25199-3 0  9994
2 47264  87.8951 348.8648 0002140  89.5922 270.5452 13.12442559265909
ONEWEB-0119             
1 47265U 20100H   26176.97238301 -.00000407  00000+0 -11666-2 0  9996
2 47265  87.8942 348.9213 0001850  92.9953 267.1387 13.12444358265850
ONEWEB-0120             
1 47266U 20100J   26177.22495375  .00000318  00000+0  84825-3 0  9999
2 47266  87.8941 348.8723 0001946  97.0663 263.0687 13.12445451265915
ONEWEB-0121             
1 47267U 20100K   26177.21295014 -.00000120  00000+0 -36840-3 0  9994
2 47267  87.8950 348.8615 0001583  85.3208 274.8101 13.12445478265828
ONEWEB-0122             
1 47268U 20100L   26177.20703375 -.00000273  00000+0 -79477-3 0  9990
2 47268  87.8954 348.8675 0001807  98.0833 262.0501 13.12444488265736
ONEWEB-0123             
1 47269U 20100M   26177.20278524 -.00000462  00000+0 -13189-2 0  9991
2 47269  87.8941 348.8746 0001945  90.8154 269.3197 13.12441770265878
ONEWEB-0124             
1 47270U 20100N   26177.19262089 -.00000386  00000+0 -11077-2 0  9999
2 47270  87.8941 348.8794 0001755  89.6469 270.4860 13.12441065265751
ONEWEB-0125             
1 47271U 20100P   26177.17060608  .00000242  00000+0  63782-3 0  9991
2 47271  87.8953 348.8682 0001843  82.4075 277.7263 13.12441019265816
ONEWEB-0126             
1 47272U 20100Q   26176.96236716 -.00000366  00000+0 -10517-2 0  9999
2 47272  87.8946 348.9245 0001925  94.8628 265.2720 13.12442590265856
ONEWEB-0127             
1 47273U 20100R   26177.23329621  .00000436  00000+0  11769-2 0  9995
2 47273  87.8939 348.8691 0001922  96.5299 263.6048 13.12442014265916
ONEWEB-0128             
1 47274U 20100S   26177.17907515 -.00000013  00000+0 -70235-4 0  9991
2 47274  87.8939 348.8937 0001529  95.7684 264.3619 13.12440699265922
ONEWEB-0129             
1 47275U 20100T   26177.23498654  .00000474  00000+0  12814-2 0  9994
2 47275  87.8951 348.8573 0002746 109.9149 250.2276 13.12444095265869
