OBJECT_NAME,OBJECT_ID,EPOCH,MEAN_MOTION,ECCENTRICITY,INCLINATION,RA_OF_ASC_NODE,ARG_OF_PERICENTER,MEAN_ANOMALY,EPHEMERIS_TYPE,CLASSIFICATION_TYPE,NORAD_CAT_ID,ELEMENT_SET_NO,REV_AT_EPOCH,BSTAR,MEAN_MOTION_DOT,MEAN_MOTION_DDOT
ONEWEB-0068,2020-020Y,2026-06-26T01:55:18.034176,13.11418062,.00016829,87.8889,19.2939,82.7187,277.4132,0,U,45446,999,30376,.11228199E-2,.411E-5,0
ONEWEB-0046,2020-020Z,2026-06-26T01:43:16.841280,13.11418158,.00018984,87.8883,19.3009,78.8613,281.2729,0,U,45447,999,30377,.25020221E-3,.101E-5,0
ONEWEB-0063,2020-020AA,2026-06-26T06:04:43.243392,13.11414378,.00020917,87.8890,19.2639,83.4958,276.6408,0,U,45448,999,30388,.11487259E-2,.42E-5,0
ONEWEB-0019,2020-020AB,2026-06-26T01:30:52.181280,13.11418748,.00018176,87.8886,19.2880,92.0714,268.0622,0,U,45449,999,30370,-.82248602E-3,-.279E-5,0
ONEWEB-0094,2020-020AC,2026-06-26T05:44:39.607584,13.17647794,.00016586,87.9141,4.0488,91.7217,268.4105,0,U,45450,999,30750,-.96439766E-4,-.25E-6,0
ONEWEB-0087,2020-020AD,2026-06-26T06:18:57.827520,13.11414767,.00015608,87.8898,19.2368,81.5990,278.5315,0,U,45451,999,30377,.16199062E-4,.18E-6,0
ONEWEB-0082,2020-020AE,2026-06-26T06:14:05.404992,13.11414165,.0001649,87.8890,19.2534,72.4129,287.7179,0,U,45452,999,30386,.22993145E-3,.94E-6,0
ONEWEB-0050,2020-020AF,2026-06-25T16:04:03.281088,14.90410431,.00016481,88.9292,232.0589,5.0787,355.0458,0,U,45453,999,34164,.20585846E-3,.2025E-4,0
ONEWEB-0034,2020-020AG,2026-06-26T01:38:35.983392,13.11418194,.00018234,87.8892,19.3012,86.4440,273.6897,0,U,45454,999,30375,-.66586761E-4,-.11E-6,0
ONEWEB-0060,2020-020AH,2026-06-26T06:03:18.264672,13.11414496,.00009036,87.8883,19.2616,69.1032,291.0193,0,U,45455,999,30373,.11603677E-2,.424E-5,0
ONEWEB-0086,2020-020AJ,2026-06-26T01:52:51.535200,13.11418511,.00011393,87.8891,19.2923,102.2493,257.8763,0,U,45456,999,30377,.12298848E-2,.449E-5,0
ONEWEB-0088,2020-020AK,2026-06-25T23:31:24.961728,13.11416546,.00021104,87.8900,19.2854,77.6847,282.4517,0,U,45457,999,30369,-.1215777E-2,-.418E-5,0
ONEWEB-0102,2020-100A,2026-06-26T04:56:54.326976,13.12442572,.00017389,87.8942,348.8809,101.7914,258.3409,0,U,47258,999,26591,-.89491897E-3,-.309E-5,0
ONEWEB-0109,2020-100B,2026-06-26T05:09:06.497856,13.12443273,.00019134,87.8953,348.8633,96.7475,263.3872,0,U,47259,999,26574,-.94852421E-4,-.21E-6,0
ONEWEB-0110,2020-100C,2026-06-26T05:48:09.396288,13.12432535,.00015485,87.8953,348.8421,96.2677,263.8628,0,U,47260,999,26591,-.16625038E-2,-.585E-5,0
ONEWEB-0111,2020-100D,2026-06-25T23:12:55.277280,13.12441994,.00017501,87.8953,348.9155,91.1067,269.0262,0,U,47261,999,26571,-.12560089E-2,-.439E-5,0
ONEWEB-0114,2020-100E,2026-06-26T05:26:11.588064,13.12446772,.00019741,87.8953,348.8616,97.0945,263.0408,0,U,47262,999,26570,.82558242E-3,.31E-5,0
ONEWEB-0117,2020-100F,2026-06-26T05:13:58.604160,13.12445324,.00017994,87.8951,348.8538,93.4452,266.6883,0,U,47263,999,26571,.21813235E-3,.91E-6,0
ONEWEB-0118,2020-100G,2026-06-26T04:12:59.333472,13.12442559,.00021409,87.8951,348.8648,89.5922,270.5452,0,U,47264,999,26590,.25198526E-3,.103E-5,0
ONEWEB-0119,2020-100H,2026-06-25T23:20:13.892064,13.12444358,.00018502,87.8942,348.9213,92.9953,267.1387,0,U,47265,999,26585,-.11665967E-2,-.407E-5,0
ONEWEB-0120,2020-100J,2026-06-26T05:23:56.004000,13.12445451,.00019468,87.8941,348.8723,97.0663,263.0687,0,U,47266,999,26591,.84824831E-3,.318E-5,0
ONEWEB-0121,2020-100K,2026-06-26T05:06:38.892096,13.12445478,.00015831,87.8950,348.8615,85.3208,274.8101,0,U,47267,999,26582,-.36840264E-3,-.12E-5,0
ONEWEB-0122,2020-100L,2026-06-26T04:58:07.716000,13.12444488,.00018077,87.8954,348.8675,98.0833,262.0501,0,U,47268,999,26573,-.79477013E-3,-.273E-5,0
ONEWEB-0123,2020-100M,2026-06-26T04:52:00.644736,13.12441770,.0001945,87.8941,348.8746,90.8154,269.3197,0,U,47269,999,26587,-.13189037E-2,-.462E-5,0
ONEWEB-0124,2020-100N,2026-06-26T04:37:22.444896,13.12441065,.00017559,87.8941,348.8794,89.6469,270.4860,0,U,47270,999,26575,-.11076528E-2,-.386E-5,0
ONEWEB-0125,2020-100P,2026-06-26T04:05:40.365312,13.12441019,.00018431,87.8953,348.8682,82.4075,277.7263,0,U,47271,999,26581,.63782371E-3,.242E-5,0
ONEWEB-0126,2020-100Q,2026-06-25T23:05:48.522624,13.12442590,.00019253,87.8946,348.9245,94.8628,265.2720,0,U,47272,999,26585,-.10516902E-2,-.366E-5,0
ONEWEB-0127,2020-100R,2026-06-26T05:35:56.792544,13.12442014,.00019221,87.8939,348.8691,96.5299,263.6048,0,U,47273,999,26591,.11768675E-2,.436E-5,0
ONEWEB-0128,2020-100S,2026-06-26T04:17:52.092960,13.12440699,.00015298,87.8939,348.8937,95.7684,264.3619,0,U,47274,999,26592,-.70234751E-4,-.13E-6,0
ONEWEB-0129,2020-100T,2026-06-26T05:38:22.837056,13.12444095,.0002746,87.8951,348.8573,109.9149,250.2276,0,U,47275,999,26586,.12813506E-2,.474E-5,0
